GLOBAL-2                
1 43812U 18099BG  26190.09397611  .00001891  00000+0  12400-3 0  9997
2 43812  97.3552 225.6963 0007678  83.6881 276.5222 15.08805290415213
GLOBAL-4                
1 44499U 19054E   26190.15660962  .00050040  00000+0  46721-3 0  9993
2 44499  45.0040 109.4392 0004228 148.3502 211.7651 15.66579665383803
GLOBAL-9                
1 47971U 21023G   26190.20792239  .00016954  00000+0  32968-3 0  9993
2 47971  44.9805 126.6789 0002706 124.3596 235.7551 15.47436738298357
GLOBAL-14               
1 49469U 21106A   26190.62206491  .00018589  00000+0  30778-3 0  9998
2 49469  42.0023 157.6429 0016751 186.3807 173.6826 15.51631327261615
GLOBAL-12               
1 49772U 21115BA  26189.61488811  .00027922  00000+0  41449-3 0  9998
2 49772  53.1955 301.4080 0002688  67.9164 292.2133 15.55014776259236
GLOBAL-13               
1 49773U 21115BB  26190.86815235  .00016240  00000+0  32469-3 0  9995
2 49773  53.1977 306.6969 0001243 154.5770 205.5300 15.46968577259270
GLOBAL-17               
1 49949U 21120A   26190.66372488  .00022529  00000+0  34803-3 0  9993
2 49949  41.9947 275.2420 0013676  48.0874 312.1135 15.53510688258392
GLOBAL-16               
1 49950U 21120B   26190.57946968  .00019876  00000+0  33357-3 0  9999
2 49950  41.9954 279.9058 0011963  36.3554 323.8101 15.51292974258320
GLOBAL-18               
1 52196U 22034B   26190.61268794  .00015045  00000+0  30048-3 0  9997
2 52196  52.9806 149.3969 0004181   9.3469 350.7614 15.47057031240433
GLOBAL-19               
1 55982U 23041B   26190.82284538  .00009484  00000+0  24970-3 0  9996
2 55982  42.0014  69.8334 0008759 182.3705 177.7094 15.38586696185411
GLOBAL-5                
1 55983U 23041C   26190.79065399  .00009510  00000+0  25032-3 0  9995
2 55983  42.0013  69.5485 0007559 178.0206 182.0664 15.38599869185418
